[{"OBJECT_NAME":"SL-8 R/B","OBJECT_ID":"1988-053B","EPOCH":"2026-03-17T12:46:31.932192","MEAN_MOTION":14.38920891,"ECCENTRICITY":0.00215341,"INCLINATION":74.045,"RA_OF_ASC_NODE":98.0088,"ARG_OF_PERICENTER":276.2738,"MEAN_ANOMALY":245.9432,"EPHEMERIS_TYPE":0,"CLASSIFICATION_TYPE":"U","NORAD_CAT_ID":19257,"ELEMENT_SET_NO":999,"REV_AT_EPOCH":97772,"BSTAR":9.9319959e-5,"MEAN_MOTION_DOT":2.8e-6,"MEAN_MOTION_DDOT":0},{"OBJECT_NAME":"COSMOS 1975","OBJECT_ID":"1988-093A","EPOCH":"2026-03-17T02:58:55.759008","MEAN_MOTION":15.28173282,"ECCENTRICITY":0.001279,"INCLINATION":82.5171,"RA_OF_ASC_NODE":110.2205,"ARG_OF_PERICENTER":138.7497,"MEAN_ANOMALY":221.4711,"EPHEMERIS_TYPE":0,"CLASSIFICATION_TYPE":"U","NORAD_CAT_ID":19573,"ELEMENT_SET_NO":999,"REV_AT_EPOCH":2054,"BSTAR":0.00016695,"MEAN_MOTION_DOT":4.627e-5,"MEAN_MOTION_DDOT":0},{"OBJECT_NAME":"SL-14 R/B","OBJECT_ID":"1988-093B","EPOCH":"2026-03-17T21:04:42.076128","MEAN_MOTION":14.856666,"ECCENTRICITY":0.0021105,"INCLINATION":82.5322,"RA_OF_ASC_NODE":34.3571,"ARG_OF_PERICENTER":15.4896,"MEAN_ANOMALY":40.8354,"EPHEMERIS_TYPE":0,"CLASSIFICATION_TYPE":"U","NORAD_CAT_ID":19574,"ELEMENT_SET_NO":999,"REV_AT_EPOCH":223,"BSTAR":5.6494e-5,"MEAN_MOTION_DOT":5.16e-6,"MEAN_MOTION_DDOT":0},{"OBJECT_NAME":"SL-16 R/B","OBJECT_ID":"1988-102B","EPOCH":"2026-03-17T14:29:56.084640","MEAN_MOTION":14.16155986,"ECCENTRICITY":0.00145204,"INCLINATION":70.9991,"RA_OF_ASC_NODE":134.8452,"ARG_OF_PERICENTER":349.2247,"MEAN_ANOMALY":10.8563,"EPHEMERIS_TYPE":0,"CLASSIFICATION_TYPE":"U","NORAD_CAT_ID":19650,"ELEMENT_SET_NO":999,"REV_AT_EPOCH":92801,"BSTAR":3.7590874e-5,"MEAN_MOTION_DOT":2.7e-7,"MEAN_MOTION_DDOT":0},{"OBJECT_NAME":"INTERCOSMOS 24","OBJECT_ID":"1989-080A","EPOCH":"2026-03-17T17:53:36.838464","MEAN_MOTION":12.59569765,"ECCENTRICITY":0.1186667,"INCLINATION":82.6017,"RA_OF_ASC_NODE":99.157,"ARG_OF_PERICENTER":274.1025,"MEAN_ANOMALY":72.5597,"EPHEMERIS_TYPE":0,"CLASSIFICATION_TYPE":"U","NORAD_CAT_ID":20261,"ELEMENT_SET_NO":999,"REV_AT_EPOCH":66781,"BSTAR":0.00017324,"MEAN_MOTION_DOT":5.82e-6,"MEAN_MOTION_DDOT":0},{"OBJECT_NAME":"SL-14 R/B","OBJECT_ID":"1989-080C","EPOCH":"2026-03-17T13:23:13.309152","MEAN_MOTION":12.50502604,"ECCENTRICITY":0.12307595,"INCLINATION":82.5968,"RA_OF_ASC_NODE":168.1372,"ARG_OF_PERICENTER":166.7724,"MEAN_ANOMALY":196.9016,"EPHEMERIS_TYPE":0,"CLASSIFICATION_TYPE":"U","NORAD_CAT_ID":20262,"ELEMENT_SET_NO":999,"REV_AT_EPOCH":66113,"BSTAR":0.00013762434,"MEAN_MOTION_DOT":4.79e-6,"MEAN_MOTION_DDOT":0},{"OBJECT_NAME":"DELTA 1 R/B","OBJECT_ID":"1989-089B","EPOCH":"2026-03-17T19:53:41.424288","MEAN_MOTION":14.50670074,"ECCENTRICITY":0.0070718,"INCLINATION":97.07,"RA_OF_ASC_NODE":282.9728,"ARG_OF_PERICENTER":96.7451,"MEAN_ANOMALY":264.1801,"EPHEMERIS_TYPE":0,"CLASSIFICATION_TYPE":"U","NORAD_CAT_ID":20323,"ELEMENT_SET_NO":999,"REV_AT_EPOCH":89691,"BSTAR":9.4653e-5,"MEAN_MOTION_DOT":3.49e-6,"MEAN_MOTION_DDOT":0},{"OBJECT_NAME":"ARIANE 40 R/B","OBJECT_ID":"1990-005H","EPOCH":"2026-03-17T14:18:59.398848","MEAN_MOTION":14.39875714,"ECCENTRICITY":0.00103429,"INCLINATION":98.3066,"RA_OF_ASC_NODE":137.0218,"ARG_OF_PERICENTER":174.4338,"MEAN_ANOMALY":185.6968,"EPHEMERIS_TYPE":0,"CLASSIFICATION_TYPE":"U","NORAD_CAT_ID":20443,"ELEMENT_SET_NO":999,"REV_AT_EPOCH":89394,"BSTAR":9.0261649e-5,"MEAN_MOTION_DOT":2.41e-6,"MEAN_MOTION_DDOT":0},{"OBJECT_NAME":"DELTA 2 R/B(1)","OBJECT_ID":"1990-008B","EPOCH":"2026-03-17T20:11:10.800672","MEAN_MOTION":15.57035785,"ECCENTRICITY":0.0082404,"INCLINATION":35.6029,"RA_OF_ASC_NODE":121.3131,"ARG_OF_PERICENTER":334.1044,"MEAN_ANOMALY":25.5582,"EPHEMERIS_TYPE":0,"CLASSIFICATION_TYPE":"U","NORAD_CAT_ID":20453,"ELEMENT_SET_NO":999,"REV_AT_EPOCH":92740,"BSTAR":0.00053989,"MEAN_MOTION_DOT":0.00047486,"MEAN_MOTION_DDOT":0},{"OBJECT_NAME":"COSMOS 2058","OBJECT_ID":"1990-010A","EPOCH":"2026-03-17T20:35:18.463776","MEAN_MOTION":15.11393721,"ECCENTRICITY":0.0008238,"INCLINATION":82.4668,"RA_OF_ASC_NODE":39.3783,"ARG_OF_PERICENTER":316.2292,"MEAN_ANOMALY":43.8284,"EPHEMERIS_TYPE":0,"CLASSIFICATION_TYPE":"U","NORAD_CAT_ID":20465,"ELEMENT_SET_NO":999,"REV_AT_EPOCH":94347,"BSTAR":0.00018478,"MEAN_MOTION_DOT":3.149e-5,"MEAN_MOTION_DDOT":0},{"OBJECT_NAME":"SL-14 R/B","OBJECT_ID":"1990-010B","EPOCH":"2026-03-17T18:43:52.546656","MEAN_MOTION":14.83576158,"ECCENTRICITY":0.0018322,"INCLINATION":82.4987,"RA_OF_ASC_NODE":259.7863,"ARG_OF_PERICENTER":273.5806,"MEAN_ANOMALY":86.3314,"EPHEMERIS_TYPE":0,"CLASSIFICATION_TYPE":"U","NORAD_CAT_ID":20466,"ELEMENT_SET_NO":999,"REV_AT_EPOCH":92968,"BSTAR":4.9105e-5,"MEAN_MOTION_DOT":4.29e-6,"MEAN_MOTION_DDOT":0},{"OBJECT_NAME":"SL-14 R/B","OBJECT_ID":"1990-018B","EPOCH":"2026-03-17T20:57:58.385952","MEAN_MOTION":14.82153577,"ECCENTRICITY":0.001752,"INCLINATION":82.5218,"RA_OF_ASC_NODE":215.4407,"ARG_OF_PERICENTER":67.2365,"MEAN_ANOMALY":293.0698,"EPHEMERIS_TYPE":0,"CLASSIFICATION_TYPE":"U","NORAD_CAT_ID":20511,"ELEMENT_SET_NO":999,"REV_AT_EPOCH":92379,"BSTAR":5.1247e-5,"MEAN_MOTION_DOT":4.33e-6,"MEAN_MOTION_DDOT":0},{"OBJECT_NAME":"HST","OBJECT_ID":"1990-037B","EPOCH":"2026-03-17T20:06:11.713248","MEAN_MOTION":15.29612827,"ECCENTRICITY":0.0001653,"INCLINATION":28.4724,"RA_OF_ASC_NODE":344.4119,"ARG_OF_PERICENTER":210.6835,"MEAN_ANOMALY":149.3664,"EPHEMERIS_TYPE":0,"CLASSIFICATION_TYPE":"U","NORAD_CAT_ID":20580,"ELEMENT_SET_NO":999,"REV_AT_EPOCH":77456,"BSTAR":0.00019603,"MEAN_MOTION_DOT":6.018e-5,"MEAN_MOTION_DDOT":0},{"OBJECT_NAME":"SL-16 R/B","OBJECT_ID":"1990-046B","EPOCH":"2026-03-17T19:50:31.816032","MEAN_MOTION":14.15011134,"ECCENTRICITY":0.0016131,"INCLINATION":70.9971,"RA_OF_ASC_NODE":280.8239,"ARG_OF_PERICENTER":288.7722,"MEAN_ANOMALY":71.165,"EPHEMERIS_TYPE":0,"CLASSIFICATION_TYPE":"U","NORAD_CAT_ID":20625,"ELEMENT_SET_NO":999,"REV_AT_EPOCH":84954,"BSTAR":4.8455e-5,"MEAN_MOTION_DOT":4.6e-7,"MEAN_MOTION_DDOT":0},{"OBJECT_NAME":"COSMOS 2084","OBJECT_ID":"1990-055A","EPOCH":"2026-03-17T21:22:45.139008","MEAN_MOTION":15.05696107,"ECCENTRICITY":0.0015794,"INCLINATION":62.7906,"RA_OF_ASC_NODE":307.6069,"ARG_OF_PERICENTER":192.2537,"MEAN_ANOMALY":167.8182,"EPHEMERIS_TYPE":0,"CLASSIFICATION_TYPE":"U","NORAD_CAT_ID":20663,"ELEMENT_SET_NO":999,"REV_AT_EPOCH":93755,"BSTAR":0.00013099,"MEAN_MOTION_DOT":1.704e-5,"MEAN_MOTION_DDOT":0},{"OBJECT_NAME":"SL-6 R/B(2)","OBJECT_ID":"1990-055D","EPOCH":"2026-03-17T10:03:34.670592","MEAN_MOTION":15.03633155,"ECCENTRICITY":0.00260348,"INCLINATION":62.7822,"RA_OF_ASC_NODE":227.5634,"ARG_OF_PERICENTER":348.8994,"MEAN_ANOMALY":11.1527,"EPHEMERIS_TYPE":0,"CLASSIFICATION_TYPE":"U","NORAD_CAT_ID":20666,"ELEMENT_SET_NO":999,"REV_AT_EPOCH":93935,"BSTAR":0.00014293527,"MEAN_MOTION_DOT":1.776e-5,"MEAN_MOTION_DDOT":0},{"OBJECT_NAME":"SL-8 R/B","OBJECT_ID":"1990-078B","EPOCH":"2026-03-17T20:09:27.671040","MEAN_MOTION":14.89329753,"ECCENTRICITY":0.0360457,"INCLINATION":82.9,"RA_OF_ASC_NODE":243.9781,"ARG_OF_PERICENTER":346.567,"MEAN_ANOMALY":12.6136,"EPHEMERIS_TYPE":0,"CLASSIFICATION_TYPE":"U","NORAD_CAT_ID":20775,"ELEMENT_SET_NO":999,"REV_AT_EPOCH":81051,"BSTAR":0.00031121,"MEAN_MOTION_DOT":0.0001055,"MEAN_MOTION_DDOT":0}]
